start=new Date('2021-11-26T00:00:00.000Z').valueOf();
sats=[{"DECAY_DATE":null,"REV_AT_EPOCH":"9386","MEAN_MOTION_DOT":"0.00000054","TLE_LINE1":"1 45369U 20019K   21329.75923186  .00000054  00000-0  22526-4 0  9997","TLE_LINE2":"2 45369  53.0556 351.8718 0001381  72.3395 287.7745 15.06391910 93869","RCS_SIZE":"LARGE","RA_OF_ASC_NODE":"351.8718","ELEMENT_SET_NO":"999","MEAN_MOTION_DDOT":"0.0000000000000","ECCENTRICITY":"0.00013810","OBJECT_NAME":"STARLINK-1277","REF_FRAME":"TEME","BSTAR":"0.00002252600000","FILE":"3224126","ARG_OF_PERICENTER":"72.3395","OBJECT_ID":"2020-019K","OBJECT_TYPE":"PAYLOAD","CENTER_NAME":"EARTH","MEAN_MOTION":"15.06391910","MEAN_ANOMALY":"287.7745","EPOCH":"2021-11-25T18:13:17.632704","MEAN_ELEMENT_THEORY":"SGP4","LAUNCH_DATE":"2020-03-18","TIME_SYSTEM":"UTC","NORAD_CAT_ID":"45369","PERIOD":"95.593","GP_ID":"190490929","INCLINATION":"53.0556","CLASSIFICATION_TYPE":"U","COUNTRY_CODE":"US","EPHEMERIS_TYPE":"0","PERIAPSIS":"546.282","SEMIMAJOR_AXIS":"6925.373","SITE":"AFETR","APOAPSIS":"548.195"},{"ECCENTRICITY":"0.00013330","REF_FRAME":"TEME","OBJECT_NAME":"STARLINK-1281","FILE":"3223911","BSTAR":"0.00012334000000","ARG_OF_PERICENTER":"60.2423","DECAY_DATE":null,"REV_AT_EPOCH":"9382","MEAN_MOTION_DOT":"0.00001556","TLE_LINE1":"1 45370U 20019L   21329.48371732  .00001556  00000-0  12334-3 0  9996","MEAN_MOTION_DDOT":"0.0000000000000","TLE_LINE2":"2 45370  53.0549 353.0951 0001333  60.2423 299.8698 15.06402162 93820","ELEMENT_SET_NO":"999","RCS_SIZE":"LARGE","RA_OF_ASC_NODE":"353.0951","EPHEMERIS_TYPE":"0","COUNTRY_CODE":"US","PERIAPSIS":"546.284","SITE":"AFETR","SEMIMAJOR_AXIS":"6925.342","APOAPSIS":"548.130","OBJECT_ID":"2020-019L","OBJECT_TYPE":"PAYLOAD","MEAN_MOTION":"15.06402162","MEAN_ANOMALY":"299.8698","CENTER_NAME":"EARTH","TIME_SYSTEM":"UTC","NORAD_CAT_ID":"45370","EPOCH":"2021-11-25T11:36:33.176448","LAUNCH_DATE":"2020-03-18","MEAN_ELEMENT_THEORY":"SGP4","CLASSIFICATION_TYPE":"U","PERIOD":"95.592","GP_ID":"190463191","INCLINATION":"53.0549"},{"DECAY_DATE":null,"REV_AT_EPOCH":"9386","MEAN_MOTION_DOT":"0.00001514","TLE_LINE1":"1 45371U 20019M   21329.77859459  .00001514  00000-0  12051-3 0  9996","MEAN_MOTION_DDOT":"0.0000000000000","RCS_SIZE":"LARGE","RA_OF_ASC_NODE":"351.7758","ELEMENT_SET_NO":"999","TLE_LINE2":"2 45371  53.0544 351.7758 0001710  57.2701 302.8452 15.06403707 93863","ECCENTRICITY":"0.00017100","REF_FRAME":"TEME","OBJECT_NAME":"STARLINK-1287","FILE":"3224126","BSTAR":"0.00012051000000","ARG_OF_PERICENTER":"57.2701","OBJECT_TYPE":"PAYLOAD","OBJECT_ID":"2020-019M","MEAN_ANOMALY":"302.8452","MEAN_MOTION":"15.06403707","CENTER_NAME":"EARTH","NORAD_CAT_ID":"45371","TIME_SYSTEM":"UTC","MEAN_ELEMENT_THEORY":"SGP4","LAUNCH_DATE":"2020-03-18","EPOCH":"2021-11-25T18:41:10.572576","CLASSIFICATION_TYPE":"U","INCLINATION":"53.0544","PERIOD":"95.592","GP_ID":"190491432","EPHEMERIS_TYPE":"0","COUNTRY_CODE":"US","PERIAPSIS":"546.018","APOAPSIS":"548.386","SITE":"AFETR","SEMIMAJOR_AXIS":"6925.337"},{"ECCENTRICITY":"0.00015450","REF_FRAME":"TEME","OBJECT_NAME":"STARLINK-1288","FILE":"3224126","BSTAR":"0.00015419000000","ARG_OF_PERICENTER":"64.8859","DECAY_DATE":null,"REV_AT_EPOCH":"9386","MEAN_MOTION_DOT":"0.00002016","TLE_LINE1":"1 45372U 20019N   21329.79333508  .00002016  00000-0  15419-3 0  9990","MEAN_MOTION_DDOT":"0.0000000000000","TLE_LINE2":"2 45372  53.0558 351.7204 0001545  64.8859 295.2290 15.06406504 93862","RA_OF_ASC_NODE":"351.7204","RCS_SIZE":"LARGE","ELEMENT_SET_NO":"999","EPHEMERIS_TYPE":"0","COUNTRY_CODE":"US","PERIAPSIS":"546.124","SEMIMAJOR_AXIS":"6925.329","SITE":"AFETR","APOAPSIS":"548.264","OBJECT_TYPE":"PAYLOAD","OBJECT_ID":"2020-019N","MEAN_MOTION":"15.06406504","MEAN_ANOMALY":"295.2290","CENTER_NAME":"EARTH","TIME_SYSTEM":"UTC","NORAD_CAT_ID":"45372","EPOCH":"2021-11-25T19:02:24.150912","LAUNCH_DATE":"2020-03-18","MEAN_ELEMENT_THEORY":"SGP4","CLASSIFICATION_TYPE":"U","PERIOD":"95.592","GP_ID":"190491683","INCLINATION":"53.0558"},{"EPHEMERIS_TYPE":"0","COUNTRY_CODE":"US","PERIAPSIS":"546.103","SEMIMAJOR_AXIS":"6925.377","SITE":"AFETR","APOAPSIS":"548.382","OBJECT_TYPE":"PAYLOAD","OBJECT_ID":"2020-019P","MEAN_MOTION":"15.06390629","MEAN_ANOMALY":"305.4049","CENTER_NAME":"EARTH","TIME_SYSTEM":"UTC","NORAD_CAT_ID":"45373","EPOCH":"2021-11-25T18:35:53.175264","MEAN_ELEMENT_THEORY":"SGP4","LAUNCH_DATE":"2020-03-18","CLASSIFICATION_TYPE":"U","PERIOD":"95.593","GP_ID":"190490431","INCLINATION":"53.0555","ECCENTRICITY":"0.00016450","REF_FRAME":"TEME","OBJECT_NAME":"STARLINK-1295","FILE":"3224126","BSTAR":"-0.00000312050000","ARG_OF_PERICENTER":"54.7093","DECAY_DATE":null,"REV_AT_EPOCH":"9386","MEAN_MOTION_DOT":"-0.00000328","TLE_LINE1":"1 45373U 20019P   21329.77492101 -.00000328  00000-0 -31205-5 0  9993","MEAN_MOTION_DDOT":"0.0000000000000","TLE_LINE2":"2 45373  53.0555 351.7991 0001645  54.7093 305.4049 15.06390629 93868","RCS_SIZE":"LARGE","RA_OF_ASC_NODE":"351.7991","ELEMENT_SET_NO":"999"},{"ECCENTRICITY":"0.00015320","OBJECT_NAME":"STARLINK-1300","REF_FRAME":"TEME","BSTAR":"0.00004029000000","FILE":"3224126","ARG_OF_PERICENTER":"49.3555","DECAY_DATE":null,"REV_AT_EPOCH":"9386","MEAN_MOTION_DOT":"0.00000319","TLE_LINE1":"1 45374U 20019Q   21329.77123205  .00000319  00000-0  40290-4 0  9991","TLE_LINE2":"2 45374  53.0555 351.8164 0001532  49.3555 310.7567 15.06399158 93860","RCS_SIZE":"LARGE","ELEMENT_SET_NO":"999","RA_OF_ASC_NODE":"351.8164","MEAN_MOTION_DDOT":"0.0000000000000","COUNTRY_CODE":"US","EPHEMERIS_TYPE":"0","PERIAPSIS":"546.155","SEMIMAJOR_AXIS":"6925.351","SITE":"AFETR","APOAPSIS":"548.277","OBJECT_TYPE":"PAYLOAD","OBJECT_ID":"2020-019Q","CENTER_NAME":"EARTH","MEAN_MOTION":"15.06399158","MEAN_ANOMALY":"310.7567","EPOCH":"2021-11-25T18:30:34.449120","MEAN_ELEMENT_THEORY":"SGP4","LAUNCH_DATE":"2020-03-18","TIME_SYSTEM":"UTC","NORAD_CAT_ID":"45374","GP_ID":"190490681","PERIOD":"95.592","INCLINATION":"53.0555","CLASSIFICATION_TYPE":"U"},{"REF_FRAME":"TEME","OBJECT_NAME":"STARLINK-1302","ECCENTRICITY":"0.00014700","ARG_OF_PERICENTER":"61.0667","FILE":"3224126","BSTAR":"0.00011652000000","MEAN_MOTION_DOT":"0.00001454","REV_AT_EPOCH":"9386","DECAY_DATE":null,"MEAN_MOTION_DDOT":"0.0000000000000","ELEMENT_SET_NO":"999","RCS_SIZE":"LARGE","RA_OF_ASC_NODE":"351.7542","TLE_LINE2":"2 45375  53.0562 351.7542 0001470  61.0667 299.0469 15.06385098 93862","TLE_LINE1":"1 45375U 20019R   21329.78598870  .00001454  00000-0  11652-3 0  9997","PERIAPSIS":"546.241","EPHEMERIS_TYPE":"0","COUNTRY_CODE":"US","APOAPSIS":"548.277","SITE":"AFETR","SEMIMAJOR_AXIS":"6925.394","MEAN_ANOMALY":"299.0469","MEAN_MOTION":"15.06385098","CENTER_NAME":"EARTH","OBJECT_ID":"2020-019R","OBJECT_TYPE":"PAYLOAD","CLASSIFICATION_TYPE":"U","INCLINATION":"53.0562","PERIOD":"95.593","GP_ID":"190491931","NORAD_CAT_ID":"45375","TIME_SYSTEM":"UTC","LAUNCH_DATE":"2020-03-18","MEAN_ELEMENT_THEORY":"SGP4","EPOCH":"2021-11-25T18:51:49.423680"},{"OBJECT_ID":"2020-019S","OBJECT_TYPE":"PAYLOAD","CENTER_NAME":"EARTH","MEAN_MOTION":"15.06392729","MEAN_ANOMALY":"292.0872","EPOCH":"2021-11-25T11:20:38.879808","LAUNCH_DATE":"2020-03-18","MEAN_ELEMENT_THEORY":"SGP4","TIME_SYSTEM":"UTC","NORAD_CAT_ID":"45376","PERIOD":"95.593","GP_ID":"190464194","INCLINATION":"53.0557","CLASSIFICATION_TYPE":"U","COUNTRY_CODE":"US","EPHEMERIS_TYPE":"0","PERIAPSIS":"546.154","SITE":"AFETR","SEMIMAJOR_AXIS":"6925.371","APOAPSIS":"548.318","DECAY_DATE":null,"MEAN_MOTION_DOT":"-0.00000754","REV_AT_EPOCH":"9381","TLE_LINE1":"1 45376U 20019S   21329.47267222 -.00000754  00000-0 -31745-4 0  9998","TLE_LINE2":"2 45376  53.0557 353.1583 0001562  68.0283 292.0872 15.06392729 93816","RA_OF_ASC_NODE":"353.1583","RCS_SIZE":"LARGE","ELEMENT_SET_NO":"999","MEAN_MOTION_DDOT":"0.0000000000000","ECCENTRICITY":"0.00015620","OBJECT_NAME":"STARLINK-1304","REF_FRAME":"TEME","BSTAR":"-0.00003174500000","FILE":"3223911","ARG_OF_PERICENTER":"68.0283"},{"REV_AT_EPOCH":"9386","MEAN_MOTION_DOT":"0.00000913","DECAY_DATE":null,"MEAN_MOTION_DDOT":"0.0000000000000","TLE_LINE2":"2 45377  53.0551 351.8475 0001652  59.1110 301.0041 15.06398727 93864","ELEMENT_SET_NO":"999","RCS_SIZE":"LARGE","RA_OF_ASC_NODE":"351.8475","TLE_LINE1":"1 45377U 20019T   21329.76386149  .00000913  00000-0  80169-4 0  9990","REF_FRAME":"TEME","OBJECT_NAME":"STARLINK-1305","ECCENTRICITY":"0.00016520","ARG_OF_PERICENTER":"59.1110","FILE":"3224126","BSTAR":"0.00008016900000","MEAN_MOTION":"15.06398727","MEAN_ANOMALY":"301.0041","CENTER_NAME":"EARTH","OBJECT_ID":"2020-019T","OBJECT_TYPE":"PAYLOAD","CLASSIFICATION_TYPE":"U","PERIOD":"95.592","GP_ID":"190490930","INCLINATION":"53.0551","TIME_SYSTEM":"UTC","NORAD_CAT_ID":"45377","EPOCH":"2021-11-25T18:19:57.632736","LAUNCH_DATE":"2020-03-18","MEAN_ELEMENT_THEORY":"SGP4","PERIAPSIS":"546.073","EPHEMERIS_TYPE":"0","COUNTRY_CODE":"US","SEMIMAJOR_AXIS":"6925.352","SITE":"AFETR","APOAPSIS":"548.362"},{"ARG_OF_PERICENTER":"60.5445","FILE":"3223911","BSTAR":"-0.00001930500000","REF_FRAME":"TEME","OBJECT_NAME":"STARLINK-1310","ECCENTRICITY":"0.00014650","MEAN_MOTION_DDOT":"0.0000000000000","TLE_LINE2":"2 45378  53.0562 353.6909 0001465  60.5445 299.5690 15.06399196 93804","RA_OF_ASC_NODE":"353.6909","RCS_SIZE":"LARGE","ELEMENT_SET_NO":"999","TLE_LINE1":"1 45378U 20019U   21329.35472380 -.00000569  00000-0 -19305-4 0  9992","REV_AT_EPOCH":"9380","MEAN_MOTION_DOT":"-0.00000569","DECAY_DATE":null,"SITE":"AFETR","SEMIMAJOR_AXIS":"6925.351","APOAPSIS":"548.231","PERIAPSIS":"546.201","EPHEMERIS_TYPE":"0","COUNTRY_CODE":"US","CLASSIFICATION_TYPE":"U","PERIOD":"95.592","GP_ID":"190463192","INCLINATION":"53.0562","TIME_SYSTEM":"UTC","NORAD_CAT_ID":"45378","EPOCH":"2021-11-25T08:30:48.136320","LAUNCH_DATE":"2020-03-18","MEAN_ELEMENT_THEORY":"SGP4","MEAN_MOTION":"15.06399196","MEAN_ANOMALY":"299.5690","CENTER_NAME":"EARTH","OBJECT_ID":"2020-019U","OBJECT_TYPE":"PAYLOAD"}];
